[{"postal_code": "", "street": "Ikamat Ennour immeuble S appartement 20", "region": "Rabat-Sale-Kenitra", "place_id": 338}, {"postal_code": "10100", "street": "Avenue Annakhil", "region": "Rabat-Sale-Kenitra", "place_id": 124}, {"postal_code": "47402", "street": "M'Hamid El Ghizlane", "region": "Souss-Massa-Draa", "place_id": 6}, {"postal_code": "11000", "street": "5 Bis Rue Boukaa", "region": "Rabat-Sale-Kenitra", "place_id": 369}, {"postal_code": "52202", "street": "BP 120 ksar Merzouga Taouz Errachdidia Ksar Rass ramel Erg chebbi Merzouga commun taouz", "region": "", "place_id": 1}, {"postal_code": "45150", "street": "17 km de Boumalne Dades, Les Gorges du Dades, Douar Lmzoudar", "region": "Souss-Massa-Draa", "place_id": 14}, {"postal_code": "26202", "street": "Labssasla cr lambarkiy, Centre EL Gara.", "region": "Casablanca-Settat", "place_id": 2}, {"postal_code": " 90000", "street": "Tanger City Center Place du Maghreb", "region": "Tanger-Tetouan", "place_id": 469}, {"postal_code": "13100", "street": "Route c\u00f4ti\u00e8re Km 44", "region": "Casablanca-Settat", "place_id": 194}, {"postal_code": "45122", "street": "Vilage asfalou ait ben haddou maroc", "region": "Souss-Massa-Draa", "place_id": 407}, {"postal_code": "93153", "street": "Cabo negro ,M'diq, Maroc", "region": "Tanger-Tetouan", "place_id": 390}, {"postal_code": "4000", "street": "medina raiid zitoune lkdim N102", "region": "Marrakech-Safi", "place_id": 13}, {"postal_code": "39000", "street": "Aziman 4", "region": "Tanger-Tetouan", "place_id": 914}, {"postal_code": "45252", "street": "Centre Telouet, Rue P1506, Province ouarzazate", "region": "Souss-Massa-Draa", "place_id": 184}, {"postal_code": "60000", "street": "95 rue el mazouzi", "region": "Oriental", "place_id": 58}, {"postal_code": "20370", "street": "Bd d'Anfa, 4 rue du Soldat Maurice Benhammou, Gauthier", "region": "Casablanca-Settat", "place_id": 715}, {"postal_code": "50000", "street": "67 Rue Driba", "region": "Fes-Meknes", "place_id": 450}, {"postal_code": "83052", "street": "Amsouzart taroudant", "region": "Souss-Massa-Draa", "place_id": 31}, {"postal_code": "44000", "street": "N\u00b04, Rue Oum Rabii", "region": "Marrakech-Safi", "place_id": 5}, {"postal_code": "83300", "street": "centre ouled berhil", "region": "Souss-Massa-Draa", "place_id": 128}, {"postal_code": "54375", "street": "R503 centre ville zaida", "region": "", "place_id": 189}, {"postal_code": "40 000", "street": "21 Laksour Derb roukni", "region": "Marrakech-Safi", "place_id": 9}, {"postal_code": "24100", "street": "27 Derb Chtouka, Medina", "region": "Casablanca-Settat", "place_id": 603}, {"postal_code": "42202", "street": "Route d'Amizmiz km 47, Lalla Takerkoust, 42202, Marrakech, Maroc", "region": "Marrakech-Safi", "place_id": 195}, {"postal_code": "93000", "street": "Residence Costa Cabo Route N16 de Capo Negro", "region": "Tanger-Tetouan", "place_id": 43}, {"postal_code": "85004", "street": "fr\u00e9crique aglou tiznit plage fr\u00e9crique", "region": "Souss-Massa-Draa", "place_id": 600}, {"postal_code": "85200", "street": "Place Chouhada N\u00b0 07", "region": "Souss-Massa-Draa", "place_id": 39}, {"postal_code": "10030", "street": "7 Rue Lalla Oum Kenabech, Derb Cherkaoui, Medina", "region": "Rabat-Sale-Kenitra", "place_id": 265}, {"postal_code": "22300", "street": "Ifasfass iminifri Tifni", "region": "Beni Mellal-Khenifra", "place_id": 565}, {"postal_code": "40030", "street": "11 Derb Smara Kandil Sidi Abdelaziz, Medina", "region": "Marrakech-Safi", "place_id": 116}, {"postal_code": "80750", "street": "quartier Irak 6", "region": "Souss-Massa-Draa", "place_id": 80}, {"postal_code": "27000", "street": "Perle de Nouaceur 1", "region": "Casablanca-Settat", "place_id": 50}, {"postal_code": "26175", "street": "Sidi Rahal Chatia", "region": "Casablanca-Settat", "place_id": 880}, {"postal_code": "46000", "street": "26 rue de la Vo\u00fbte (26 Derb El Kaouss)", "region": "Marrakech-Safi", "place_id": 851}, {"postal_code": "12000", "street": "4431 Lotissement wifaq Avenue Mohamed VI", "region": "Rabat-Sale-Kenitra", "place_id": 286}, {"postal_code": "24010", "street": "26 Rue Du Doctor Blanc", "region": "Casablanca-Settat", "place_id": 63}, {"postal_code": "42100", "street": "Douar Regraga", "region": "Marrakech-Safi", "place_id": 741}, {"postal_code": "93200", "street": "Avenue Abdkrim Khatabi", "region": "Tanger-Tetouan", "place_id": 478}, {"postal_code": "80010", "street": "Sonaba Founty", "region": "Souss-Massa-Draa", "place_id": 113}, {"postal_code": "70000", "street": "Al Amal 3. Rue Asliyine. N\u00b0 1", "region": "Laayoune-Sakia El Hamra", "place_id": 208}, {"postal_code": "40040", "street": "128, Riad Zitoune Lakdim Medina", "region": "Marrakech-Safi", "place_id": 343}, {"postal_code": "10090", "street": "4 Avenue de France FIRST HOTEL", "region": "Rabat-Sale-Kenitra", "place_id": 568}, {"postal_code": "44 000", "street": "Boulevard Mohamed V", "region": "Marrakech-Safi", "place_id": 660}, {"postal_code": "13000", "street": "Bella Vista Bloc G Imm 2 Appt 13 Cherrat", "region": "Casablanca-Settat", "place_id": 476}, {"postal_code": "47050", "street": "Douar Aslim", "region": "Souss-Massa-Draa", "place_id": 824}, {"postal_code": "41000", "street": "Quartier Riad Zitoune Derb El Bir Lakdim N\u00b06, Medina", "region": "Marrakech-Safi", "place_id": 553}, {"postal_code": "40500", "street": "Ait benhaddou Ouarzazate", "region": "Souss-Massa-Draa", "place_id": 630}, {"postal_code": "52000", "street": "zone touristique route de guelmima", "region": "", "place_id": 196}, {"postal_code": "11001", "street": "14 Rue Saniat Sabounji", "region": "Rabat-Sale-Kenitra", "place_id": 800}, {"postal_code": "20450", "street": "Angle Rue ibn Toumart et Abdelaziz Boutaleb", "region": "Casablanca-Settat", "place_id": 226}, {"postal_code": "84150", "street": "Dune De Chegaga Foum Zguid Tata", "region": "Souss-Massa-Draa", "place_id": 428}, {"postal_code": "80 000", "street": "Tighanimine El Baz", "region": "Souss-Massa-Draa", "place_id": 958}, {"postal_code": "45001", "street": "Hay Tamassinte", "region": "Souss-Massa-Draa", "place_id": 433}, {"postal_code": "93100", "street": "Avenue Fnideq 3, 18", "region": "Tanger-Tetouan", "place_id": 636}, {"postal_code": "53105", "street": "route de bensmim, Ifrane", "region": "Fes-Meknes", "place_id": 651}, {"postal_code": "52002", "street": "118 Asrir oued Ferkla", "region": "", "place_id": 16}, {"postal_code": "52224", "street": "ET-TAOUS 52200", "region": "", "place_id": 101}, {"postal_code": "45900", "street": "Zagora", "region": "Souss-Massa-Draa", "place_id": 10}, {"postal_code": "20250", "street": "290 Boulevard Mohamed Zerktouni", "region": "Casablanca-Settat", "place_id": 20}, {"postal_code": "37000", "street": "3,5 Rue Zebdi", "region": "Rabat-Sale-Kenitra", "place_id": 769}, {"postal_code": "40000", "street": "4 derb Azzouz Mouassine", "region": "Marrakech-Safi", "place_id": 3}, {"postal_code": "45000", "street": "Route de Marrakech", "region": "Souss-Massa-Draa", "place_id": 44}, {"postal_code": "26200", "street": "Douar El Bouzanniene  Nouacer BP 27 Deroua", "region": "Casablanca-Settat", "place_id": 894}, {"postal_code": "52020", "street": "Ksar merzouga", "region": "", "place_id": 311}, {"postal_code": "47076", "street": "Ksar Oulad Driss Mhamid", "region": "Souss-Massa-Draa", "place_id": 255}, {"postal_code": "40000 ", "street": "104 Diour Jdad Zaouia Abbassia,Porte Bab Yacout", "region": "Marrakech-Safi", "place_id": 576}, {"postal_code": "63600", "street": "Boulevard Hassan II Angle rue Dakhla", "region": "Oriental", "place_id": 505}, {"postal_code": "28800", "street": "Boulevard Moulay Ismail R\u00e9sidence Miramar  immeuble G appartement 16", "region": "Casablanca-Settat", "place_id": 897}, {"postal_code": "24252", "street": "Ancienne Kasbah", "region": "Casablanca-Settat", "place_id": 129}, {"postal_code": "52200", "street": "ksar merzouga", "region": "", "place_id": 56}, {"postal_code": "45352", "street": "Ait kassi souk El-kh\u00e8mis Boumalne dades", "region": "Souss-Massa-Draa", "place_id": 834}, {"postal_code": "80002", "street": "P1001 N318, Lot Amdel Imsouane", "region": "Souss-Massa-Draa", "place_id": 613}, {"postal_code": "93006", "street": "Boulevard Al Oukhouane", "region": "Tanger-Tetouan", "place_id": 201}, {"postal_code": "80502", "street": "Dr Timassinine tamri 92", "region": "Souss-Massa-Draa", "place_id": 656}, {"postal_code": "44005", "street": "Commune rurale ida ougourd", "region": "Marrakech-Safi", "place_id": 54}, {"postal_code": "50004", "street": "21 rue El Kanout zitouna", "region": "Fes-Meknes", "place_id": 137}, {"postal_code": "44620", "street": "30-36 Sidi Mohammed Ben Abdellah", "region": "Marrakech-Safi", "place_id": 235}, {"postal_code": "47900", "street": "Avenue Med V Hay Tansita khchaa - Zagora", "region": "Souss-Massa-Draa", "place_id": 319}, {"postal_code": "20320", "street": "10, Rue Lieutnant Berger, Mers Sultan", "region": "Casablanca-Settat", "place_id": 594}, {"postal_code": "60300", "street": "Route Madagh Douar Zra\u00efb", "region": "Oriental", "place_id": 664}, {"postal_code": "31100", "street": "60 Kaf Rhouni", "region": "Fes-Meknes", "place_id": 173}, {"postal_code": "23000", "street": "55 Boulevard Mohamed V 55 Boulevard Mohamed V", "region": "Beni Mellal-Khenifra", "place_id": 861}, {"postal_code": "30200", "street": "1/3 Derb Ben Doud Zerbtana, Batha, Medina", "region": "Fes-Meknes", "place_id": 27}, {"postal_code": "30110", "street": "24 Derb El Miter Ain Azliten", "region": "Fes-Meknes", "place_id": 77}, {"postal_code": "24250", "street": "120 centre touristique", "region": "Casablanca-Settat", "place_id": 513}, {"postal_code": "85450", "street": "R 105 Route Ammeln", "region": "Souss-Massa-Draa", "place_id": 190}, {"postal_code": "14030", "street": "Parc d'activit\u00e9 commerciale marjane Kenitra", "region": "Rabat-Sale-Kenitra", "place_id": 26}, {"postal_code": "85350", "street": "Rue de Casablanca", "region": "Souss-Massa-Draa", "place_id": 830}, {"postal_code": "47050 ", "street": "Douar Agdz", "region": "Souss-Massa-Draa", "place_id": 246}, {"postal_code": "10080", "street": "56 Rue Jabal Oukaimeden", "region": "Rabat-Sale-Kenitra", "place_id": 408}, {"postal_code": "20390", "street": "1 Rue Prosper M\u00e9rim\u00e9e, Val Fleuri", "region": "Casablanca-Settat", "place_id": 75}, {"postal_code": "84053", "street": "province TATA Tissint", "region": "Souss-Massa-Draa", "place_id": 172}, {"postal_code": "45100", "street": "Ait Ben Haddou", "region": "Souss-Massa-Draa", "place_id": 380}, {"postal_code": "11150", "street": "21 Rue Moul Goumri", "region": "Rabat-Sale-Kenitra", "place_id": 673}, {"postal_code": "30050", "street": "3 Avenue DES FORCES ARMEES ROYALES", "region": "Fes-Meknes", "place_id": 554}, {"postal_code": "83000", "street": "Rue Al Kassbah", "region": "Souss-Massa-Draa", "place_id": 340}, {"postal_code": "45502", "street": "Tiriguioute Skoura Ouarzazate", "region": "Souss-Massa-Draa", "place_id": 176}, {"postal_code": "40008", "street": "56, Derb Chorfa Lakbir  Mouassine", "region": "Marrakech-Safi", "place_id": 418}, {"postal_code": "80450", "street": "Douar Ifentar Massa", "region": "Souss-Massa-Draa", "place_id": 927}, {"postal_code": "80350", "street": "Piste en Bordure de l'Oued Souss", "region": "Souss-Massa-Draa", "place_id": 854}, {"postal_code": "81000", "street": "Oasis Tarmguist", "region": "Guelmim-Oued Noun", "place_id": 197}, {"postal_code": "42113", "street": "Commune d'Agafay, Route D'amzmiz  Sidi Badhaj Marrakech 42113 Commune d'Agafay, Route D'amzmiz  Sidi Badhaj Marrakech 42113", "region": "Marrakech-Safi", "place_id": 495}, {"postal_code": "11050", "street": "22, R\u00e9sidence Jawharat Al Bahr Imb22 Lot2 Apt10", "region": "Rabat-Sale-Kenitra", "place_id": 828}, {"postal_code": "30008", "street": "17, Derb Mitter Zjenfor", "region": "Fes-Meknes", "place_id": 396}, {"postal_code": "10000", "street": "23 Rue Chellah, Place Melilia, Hassan", "region": "Rabat-Sale-Kenitra", "place_id": 213}, {"postal_code": "45800", "street": "2 km avant les gorges de toudgha", "region": "Souss-Massa-Draa", "place_id": 92}, {"postal_code": "42250", "street": "Douar Ouamdi", "region": "Marrakech-Safi", "place_id": 461}, {"postal_code": "32000", "street": "4 Menia Saghira Alaa Kabira", "region": "Fes-Meknes", "place_id": 451}, {"postal_code": "63603", "street": "R\u00e9sidence AP 8 Saidia \ufeffIM 2 APP 27 1er \u00e9tage", "region": "Oriental", "place_id": 383}, {"postal_code": "20100", "street": "Angle boulevard Massira & Rue Normandie", "region": "Casablanca-Settat", "place_id": 227}, {"postal_code": "28810", "street": "La Corniche R\u00e9sidence miramar", "region": "Casablanca-Settat", "place_id": 55}, {"postal_code": "20190", "street": "Lotissement Mandarouna 300, Sidi Maarouf", "region": "Casablanca-Settat", "place_id": 323}, {"postal_code": "42452", "street": "Douar Boutbira, CR Ourika- MARRAKECH", "region": "Marrakech-Safi", "place_id": 260}, {"postal_code": "54350", "street": "Rue Ettoumour Almou N 9", "region": "", "place_id": 687}, {"postal_code": "440000", "street": "349.Rue Alot Erraounak", "region": "Marrakech-Safi", "place_id": 863}, {"postal_code": "44100", "street": "25, Rue Mourabitine", "region": "Marrakech-Safi", "place_id": 709}, {"postal_code": "62000", "street": "Bd Grand Rif, Lot Saada 62010 Nador Jadid", "region": "Oriental", "place_id": 470}, {"postal_code": "52403", "street": "Imilchil centre", "region": "", "place_id": 205}, {"postal_code": "90050", "street": "rue M'jimaa N\u00b0 23", "region": "Tanger-Tetouan", "place_id": 275}, {"postal_code": "87402", "street": "Village Idaougnidif (Tioulit) entre Ait Baha et Tafraout", "region": "Souss-Massa-Draa", "place_id": 425}, {"postal_code": "20410", "street": "6, rue d'Aix Oasis", "region": "Casablanca-Settat", "place_id": 573}, {"postal_code": "42000", "street": "Targa Imoula Douar targa imoula Imlil", "region": "Marrakech-Safi", "place_id": 588}, {"postal_code": "73000", "street": "100 Bld Mohamed V", "region": "Dakhla-Oued Ed-Dahab", "place_id": 51}, {"postal_code": "50030", "street": "20 Db Lalla Sti Hennou (Ville Ancienne)", "region": "Fes-Meknes", "place_id": 584}, {"postal_code": "45200", "street": "Tizi Ait ihya", "region": "Souss-Massa-Draa", "place_id": 17}, {"postal_code": "20060", "street": "Rue Badr Assayab, Quartier Gauthier, 3", "region": "Casablanca-Settat", "place_id": 23}, {"postal_code": "90030", "street": "Rue Sidi Jalil 17", "region": "Tanger-Tetouan", "place_id": 605}, {"postal_code": "80022", "street": "Ait Bihi", "region": "Souss-Massa-Draa", "place_id": 342}, {"postal_code": "53000", "street": "route Ain Ifrane barrage ben Smim Ifrane", "region": "Fes-Meknes", "place_id": 187}, {"postal_code": "20070", "street": "Rue abou El Mouataz El falaki, Marrif Casablanca", "region": "Casablanca-Settat", "place_id": 654}, {"postal_code": "31110", "street": "Rue Talaa Sghira 6, Tariana Sghira", "region": "Fes-Meknes", "place_id": 472}, {"postal_code": "42173", "street": "Douar Marigha, KM58 route d'Amizmiz par Asni", "region": "Marrakech-Safi", "place_id": 569}, {"postal_code": "91000", "street": "Rue Benjelloun Rue Bendiban, 35.167480, -5.263338", "region": "Tanger-Tetouan", "place_id": 29}, {"postal_code": "93010", "street": "maouan n\u00b0 21 Souika", "region": "Tanger-Tetouan", "place_id": 593}, {"postal_code": "82003", "street": "Avd. Sid El Garne N\u00ba 66, El Ouat\u00eda", "region": "Guelmim-Oued Noun", "place_id": 341}, {"postal_code": "28820", "street": "R\u00e9sidence Kamal Park Center, angle boulevard zerktouni et boulevard de f\u00e8s Immeuble F, 5\u00e8me \u00e9tage, n 20", "region": "Casablanca-Settat", "place_id": 157}, {"postal_code": "14000", "street": "Villa 426, El Amria Mehdia Plage", "region": "Rabat-Sale-Kenitra", "place_id": 230}, {"postal_code": "93150", "street": "Avenue La Marche Verte N\u00b0 76 Rez-Chauss\u00e9 N\u00b01 Martil", "region": "Tanger-Tetouan", "place_id": 350}, {"postal_code": "30100", "street": "17, Derb el Gabbasse fes - batha- Morocco", "region": "Fes-Meknes", "place_id": 735}, {"postal_code": "90000", "street": "SEBQNINE RAS EL MA", "region": "Tanger-Tetouan", "place_id": 12}, {"postal_code": "85352", "street": "Mirleft Centre", "region": "Souss-Massa-Draa", "place_id": 179}, {"postal_code": "20880", "street": "R322", "region": "Casablanca-Settat", "place_id": 171}, {"postal_code": "30000", "street": "N 74 Rass Jnan Bab Jdid", "region": "Fes-Meknes", "place_id": 19}, {"postal_code": "47402 ", "street": "M'hamid Erg lihoudi 47402 Mhamid El Ghizlane, Marokko", "region": "Souss-Massa-Draa", "place_id": 258}, {"postal_code": "80000", "street": "Village tamraght Road, N1", "region": "Souss-Massa-Draa", "place_id": 168}, {"postal_code": "52450", "street": "Route National 13", "region": "", "place_id": 175}, {"postal_code": "50003", "street": "Tiberbarine", "region": "Fes-Meknes", "place_id": 440}, {"postal_code": "24000", "street": "Angle Av.Ibn Khaldoun & Rue jules Verne", "region": "Casablanca-Settat", "place_id": 220}, {"postal_code": "40200", "street": "Arset Ben Brahim Derb Dardouba N\u00b026", "region": "Marrakech-Safi", "place_id": 364}, {"postal_code": "40034", "street": "9 Derb el Hajra, El Baroudiyine District (Mosque Ben Youssef)", "region": "Marrakech-Safi", "place_id": 966}, {"postal_code": "23150", "street": "P3208 2", "region": "Beni Mellal-Khenifra", "place_id": 596}, {"postal_code": "40160", "street": "Village Omina El Hiba Commune Saada", "region": "Marrakech-Safi", "place_id": 105}, {"postal_code": "44125", "street": "P2201", "region": "Marrakech-Safi", "place_id": 530}, {"postal_code": "90064", "street": "35.532263, -6.006148 Akwass playa", "region": "Tanger-Tetouan", "place_id": 186}, {"postal_code": "35000", "street": "10 Derb Borj Dhab, R\u00b4cif.", "region": "Fes-Meknes", "place_id": 838}, {"postal_code": "40065", "street": "Km 10,5 Route de l'Ourika Commune de Tassoultante", "region": "Marrakech-Safi", "place_id": 702}, {"postal_code": "90060", "street": "Rue la Sena", "region": "Tanger-Tetouan", "place_id": 508}, {"postal_code": "40007", "street": "99 Derb Sidi moussa Quartier La Bahia", "region": "Marrakech-Safi", "place_id": 118}, {"postal_code": "20000", "street": "Angle Rue Kamal Mohamed-Avenue des F.A.R", "region": "Casablanca-Settat", "place_id": 222}, {"postal_code": "42152", "street": "Douar Imlil Asni BP42152 Marrakech", "region": "Marrakech-Safi", "place_id": 41}, {"postal_code": "85000", "street": "Unnamed Road Ait omgass, Ammeln Valley", "region": "Souss-Massa-Draa", "place_id": 627}, {"postal_code": "53100", "street": "Route du Cedre Gouraud", "region": "Fes-Meknes", "place_id": 292}, {"postal_code": "82000", "street": "Avenue Al-Wahda tantan plage Al outia . 82000 Mo", "region": "Guelmim-Oued Noun", "place_id": 170}, {"postal_code": "31250", "street": "douar ait oued fel ait sebaa lajrouf", "region": "Fes-Meknes", "place_id": 274}, {"postal_code": "42150", "street": "Douar Ijoukak Commune rural Ijoukak", "region": "Marrakech-Safi", "place_id": 481}, {"postal_code": "80023", "street": "Rue Tamraght", "region": "Souss-Massa-Draa", "place_id": 18}, {"postal_code": "45500", "street": "Douar Oulad Yacoub Skoura Skoura", "region": "Souss-Massa-Draa", "place_id": 188}, {"postal_code": "87452", "street": "Sidi Wassay Massa", "region": "Souss-Massa-Draa", "place_id": 231}]